STARLINK-2484
1 18141C 21027BB  21326.17432447  .00001730  00000-0  11586-3 0  3265
2 18141  53.0545  12.9683 0001514  62.0576 213.5366 15.06412000    14
